{"type": "FeatureCollection", "features": [ {"type": "Feature", "properties": {"norad_id": 33917, "name": "COSMOS 2251 DEB", "group": "cosmos-2251-debris", "lat": 64.9705461478916, "lon": 135.20941990862178, "alt_km": 1129.0111057960512, "timestamp": "2025-12-27T20:30:59.672974+00:00", "meta": {"OBJECT_NAME": "COSMOS 2251 DEB", "OBJECT_ID": "1993-036DW", "EPOCH": "2025-12-27T07:52:49.891008", "MEAN_MOTION": 13.69395836, "ECCENTRICITY": 0.0331064, "INCLINATION": 74.1073, "RA_OF_ASC_NODE": 98.4731, "ARG_OF_PERICENTER": 196.254, "MEAN_ANOMALY": 162.7759, "EPHEMERIS_TYPE": 0, "CLASSIFICATION_TYPE": "U", "NORAD_CAT_ID": 33917, "ELEMENT_SET_NO": 999, "REV_AT_EPOCH": 83933, "BSTAR": 0.0012085, "MEAN_MOTION_DOT": 1.522e-05, "MEAN_MOTION_DDOT": 0}, "tle": {"line1": "1 33917U 93036DW  25361.32835522  .00001522  00000+0  12085-2 0  9998", "line2": "2 33917  74.1073  98.4731 0331064 196.2540 162.7759 13.69395836839339"}}, "geometry": {"type": "Point", "coordinates": [135.20941990862178, 64.9705461478916]}}, {"type": "Feature", "properties": {"norad_id": 33920, "name": "COSMOS 2251 DEB", "group": "cosmos-2251-debris", "lat": -42.72046944395365, "lon": -105.59997987497697, "alt_km": 684.3047780562156, "timestamp": "2025-12-27T20:30:59.672984+00:00", "meta": {"OBJECT_NAME": "COSMOS 2251 DEB", "OBJECT_ID": "1993-036DZ", "EPOCH": "2025-12-27T04:15:33.347520", "MEAN_MOTION": 14.58497819, "ECCENTRICITY": 0.00375268, "INCLINATION": 74.0609, "RA_OF_ASC_NODE": 270.9888, "ARG_OF_PERICENTER": 275.3001, "MEAN_ANOMALY": 84.3883, "EPHEMERIS_TYPE": 0, "CLASSIFICATION_TYPE": "U", "NORAD_CAT_ID": 33920, "ELEMENT_SET_NO": 999, "REV_AT_EPOCH": 88325, "BSTAR": 0.0018965408, "MEAN_MOTION_DOT": 8.876e-05, "MEAN_MOTION_DDOT": 0}, "tle": {"line1": "1 33920U 93036DZ  25361.17746930  .00008876  00000+0  18965-2 0  9991", "line2": "2 33920  74.0609 270.9888 0037526 275.3001  84.3883 14.58497819883254"}}, "geometry": {"type": "Point", "coordinates": [-105.59997987497697, -42.72046944395365]}}, {"type": "Feature", "properties": {"norad_id": 33922, "name": "COSMOS 2251 DEB", "group": "cosmos-2251-debris", "lat": -23.424732794458198, "lon": 112.30400216776783, "alt_km": 737.082740908797, "timestamp": "2025-12-27T20:30:59.672994+00:00", "meta": {"OBJECT_NAME": "COSMOS 2251 DEB", "OBJECT_ID": "1993-036EB", "EPOCH": "2025-12-26T10:09:19.550880", "MEAN_MOTION": 14.49558695, "ECCENTRICITY": 0.0023079, "INCLINATION": 74.0472, "RA_OF_ASC_NODE": 122.1065, "ARG_OF_PERICENTER": 231.2219, "MEAN_ANOMALY": 195.9664, "EPHEMERIS_TYPE": 0, "CLASSIFICATION_TYPE": "U", "NORAD_CAT_ID": 33922, "ELEMENT_SET_NO": 999, "REV_AT_EPOCH": 88776, "BSTAR": 0.00055696, "MEAN_MOTION_DOT": 2.117e-05, "MEAN_MOTION_DDOT": 0}, "tle": {"line1": "1 33922U 93036EB  25360.42314295  .00002117  00000+0  55696-3 0  9990", "line2": "2 33922  74.0472 122.1065 0023079 231.2219 195.9664 14.49558695887765"}}, "geometry": {"type": "Point", "coordinates": [112.30400216776783, -23.424732794458198]}}, {"type": "Feature", "properties": {"norad_id": 33924, "name": "COSMOS 2251 DEB", "group": "cosmos-2251-debris", "lat": -73.52939872037062, "lon": 143.33416993904524, "alt_km": 783.8294670811229, "timestamp": "2025-12-27T20:30:59.673004+00:00", "meta": {"OBJECT_NAME": "COSMOS 2251 DEB", "OBJECT_ID": "1993-036ED", "EPOCH": "2025-12-27T10:17:00.068928", "MEAN_MOTION": 13.50242091, "ECCENTRICITY": 0.040374, "INCLINATION": 73.9127, "RA_OF_ASC_NODE": 246.5906, "ARG_OF_PERICENTER": 279.4456, "MEAN_ANOMALY": 76.1239, "EPHEMERIS_TYPE": 0, "CLASSIFICATION_TYPE": "U", "NORAD_CAT_ID": 33924, "ELEMENT_SET_NO": 999, "REV_AT_EPOCH": 82937, "BSTAR": 0.00045885, "MEAN_MOTION_DOT": 4.62e-06, "MEAN_MOTION_DDOT": 0}, "tle": {"line1": "1 33924U 93036ED  25361.42847302  .00000462  00000+0  45885-3 0  9993", "line2": "2 33924  73.9127 246.5906 0403740 279.4456  76.1239 13.50242091829373"}}, "geometry": {"type": "Point", "coordinates": [143.33416993904524, -73.52939872037062]}}, {"type": "Feature", "properties": {"norad_id": 33928, "name": "COSMOS 2251 DEB", "group": "cosmos-2251-debris", "lat": 60.485559816563686, "lon": 54.726715107347225, "alt_km": 742.516542615178, "timestamp": "2025-12-27T20:30:59.673015+00:00", "meta": {"OBJECT_NAME": "COSMOS 2251 DEB", "OBJECT_ID": "1993-036EH", "EPOCH": "2025-12-27T11:55:29.015040", "MEAN_MOTION": 14.47433289, "ECCENTRICITY": 0.0062143, "INCLINATION": 73.9252, "RA_OF_ASC_NODE": 24.7798, "ARG_OF_PERICENTER": 315.9426, "MEAN_ANOMALY": 43.6788, "EPHEMERIS_TYPE": 0, "CLASSIFICATION_TYPE": "U", "NORAD_CAT_ID": 33928, "ELEMENT_SET_NO": 999, "REV_AT_EPOCH": 88858, "BSTAR": 0.0003109, "MEAN_MOTION_DOT": 1.139e-05, "MEAN_MOTION_DDOT": 0}, "tle": {"line1": "1 33928U 93036EH  25361.49686360  .00001139  00000+0  31090-3 0  9994", "line2": "2 33928  73.9252  24.7798 0062143 315.9426  43.6788 14.47433289888586"}}, "geometry": {"type": "Point", "coordinates": [54.726715107347225, 60.485559816563686]}}, {"type": "Feature", "properties": {"norad_id": 33932, "name": "COSMOS 2251 DEB", "group": "cosmos-2251-debris", "lat": 73.86899160861873, "lon": 26.2142177193746, "alt_km": 755.6510178119415, "timestamp": "2025-12-27T20:30:59.673025+00:00", "meta": {"OBJECT_NAME": "COSMOS 2251 DEB", "OBJECT_ID": "1993-036EM", "EPOCH": "2025-12-27T05:04:22.412064", "MEAN_MOTION": 14.38801134, "ECCENTRICITY": 0.0036067, "INCLINATION": 74.0343, "RA_OF_ASC_NODE": 289.2263, "ARG_OF_PERICENTER": 2.0411, "MEAN_ANOMALY": 358.0884, "EPHEMERIS_TYPE": 0, "CLASSIFICATION_TYPE": "U", "NORAD_CAT_ID": 33932, "ELEMENT_SET_NO": 999, "REV_AT_EPOCH": 88206, "BSTAR": 0.00054353, "MEAN_MOTION_DOT": 1.657e-05, "MEAN_MOTION_DDOT": 0}, "tle": {"line1": "1 33932U 93036EM  25361.21137051  .00001657  00000+0  54353-3 0  9999", "line2": "2 33932  74.0343 289.2263 0036067   2.0411 358.0884 14.38801134882068"}}, "geometry": {"type": "Point", "coordinates": [26.2142177193746, 73.86899160861873]}}, {"type": "Feature", "properties": {"norad_id": 33933, "name": "COSMOS 2251 DEB", "group": "cosmos-2251-debris", "lat": 12.187504148780254, "lon": 36.11992264311485, "alt_km": 734.2483339008222, "timestamp": "2025-12-27T20:30:59.673035+00:00", "meta": {"OBJECT_NAME": "COSMOS 2251 DEB", "OBJECT_ID": "1993-036EN", "EPOCH": "2025-12-27T12:05:02.185728", "MEAN_MOTION": 14.33512195, "ECCENTRICITY": 0.0071108, "INCLINATION": 74.0887, "RA_OF_ASC_NODE": 33.2279, "ARG_OF_PERICENTER": 37.2605, "MEAN_ANOMALY": 323.3449, "EPHEMERIS_TYPE": 0, "CLASSIFICATION_TYPE": "U", "NORAD_CAT_ID": 33933, "ELEMENT_SET_NO": 999, "REV_AT_EPOCH": 87996, "BSTAR": 0.0003197, "MEAN_MOTION_DOT": 8.84e-06, "MEAN_MOTION_DDOT": 0}, "tle": {"line1": "1 33933U 93036EN  25361.50349752  .00000884  00000+0  31970-3 0  9996", "line2": "2 33933  74.0887  33.2279 0071108  37.2605 323.3449 14.33512195879964"}}, "geometry": {"type": "Point", "coordinates": [36.11992264311485, 12.187504148780254]}}, {"type": "Feature", "properties": {"norad_id": 33934, "name": "COSMOS 2251 DEB", "group": "cosmos-2251-debris", "lat": 73.30399954031296, "lon": 144.37584848613827, "alt_km": 691.8708321406266, "timestamp": "2025-12-27T20:30:59.673045+00:00", "meta": {"OBJECT_NAME": "COSMOS 2251 DEB", "OBJECT_ID": "1993-036EP", "EPOCH": "2025-12-27T06:57:51.278112", "MEAN_MOTION": 14.59226401, "ECCENTRICITY": 0.0014962, "INCLINATION": 74.0378, "RA_OF_ASC_NODE": 72.8468, "ARG_OF_PERICENTER": 196.2127, "MEAN_ANOMALY": 163.8562, "EPHEMERIS_TYPE": 0, "CLASSIFICATION_TYPE": "U", "NORAD_CAT_ID": 33934, "ELEMENT_SET_NO": 999, "REV_AT_EPOCH": 88951, "BSTAR": 0.00092344, "MEAN_MOTION_DOT": 4.337e-05, "MEAN_MOTION_DDOT": 0}, "tle": {"line1": "1 33934U 93036EP  25361.29017683  .00004337  00000+0  92344-3 0  9997", "line2": "2 33934  74.0378  72.8468 0014962 196.2127 163.8562 14.59226401889514"}}, "geometry": {"type": "Point", "coordinates": [144.37584848613827, 73.30399954031296]}}, {"type": "Feature", "properties": {"norad_id": 33936, "name": "COSMOS 2251 DEB", "group": "cosmos-2251-debris", "lat": 68.40786699191904, "lon": 54.98935398458968, "alt_km": 683.2911589878659, "timestamp": "2025-12-27T20:30:59.673055+00:00", "meta": {"OBJECT_NAME": "COSMOS 2251 DEB", "OBJECT_ID": "1993-036ER", "EPOCH": "2025-12-27T07:01:09.592032", "MEAN_MOTION": 14.60359367, "ECCENTRICITY": 0.0026574, "INCLINATION": 74.0185, "RA_OF_ASC_NODE": 9.6679, "ARG_OF_PERICENTER": 161.4829, "MEAN_ANOMALY": 198.7311, "EPHEMERIS_TYPE": 0, "CLASSIFICATION_TYPE": "U", "NORAD_CAT_ID": 33936, "ELEMENT_SET_NO": 999, "REV_AT_EPOCH": 89102, "BSTAR": 0.00072062, "MEAN_MOTION_DOT": 3.474e-05, "MEAN_MOTION_DDOT": 0}, "tle": {"line1": "1 33936U 93036ER  25361.29247213  .00003474  00000+0  72062-3 0  9999", "line2": "2 33936  74.0185   9.6679 0026574 161.4829 198.7311 14.60359367891027"}}, "geometry": {"type": "Point", "coordinates": [54.98935398458968, 68.40786699191904]}}, {"type": "Feature", "properties": {"norad_id": 33938, "name": "COSMOS 2251 DEB", "group": "cosmos-2251-debris", "lat": -73.18937506100373, "lon": 107.69231137426388, "alt_km": 731.4254547484616, "timestamp": "2025-12-27T20:30:59.673065+00:00", "meta": {"OBJECT_NAME": "COSMOS 2251 DEB", "OBJECT_ID": "1993-036ET", "EPOCH": "2025-12-27T00:05:50.320032", "MEAN_MOTION": 14.46838787, "ECCENTRICITY": 0.0016796, "INCLINATION": 74.0436, "RA_OF_ASC_NODE": 180.5435, "ARG_OF_PERICENTER": 261.5611, "MEAN_ANOMALY": 264.018, "EPHEMERIS_TYPE": 0, "CLASSIFICATION_TYPE": "U", "NORAD_CAT_ID": 33938, "ELEMENT_SET_NO": 999, "REV_AT_EPOCH": 88606, "BSTAR": 0.00054419, "MEAN_MOTION_DOT": 1.949e-05, "MEAN_MOTION_DDOT": 0}, "tle": {"line1": "1 33938U 93036ET  25361.00405463  .00001949  00000+0  54419-3 0  9994", "line2": "2 33938  74.0436 180.5435 0016796 261.5611 264.0180 14.46838787886064"}}, "geometry": {"type": "Point", "coordinates": [107.69231137426388, -73.18937506100373]}}]}